[{"OBJECT_NAME":"STARLINK-5722","OBJECT_ID":"2023-020AT","EPOCH":"2026-03-09T04:34:39.523872","MEAN_MOTION":15.02523464,"ECCENTRICITY":9.191e-5,"INCLINATION":43.0056,"RA_OF_ASC_NODE":354.4318,"ARG_OF_PERICENTER":293.2203,"MEAN_ANOMALY":66.8542,"EPHEMERIS_TYPE":0,"CLASSIFICATION_TYPE":"U","NORAD_CAT_ID":55610,"ELEMENT_SET_NO":999,"REV_AT_EPOCH":16899,"BSTAR":0.00010423699,"MEAN_MOTION_DOT":1.204e-5,"MEAN_MOTION_DDOT":0},{"OBJECT_NAME":"CZ-6A DEB","OBJECT_ID":"2024-140VD","EPOCH":"2026-03-09T13:59:50.309088","MEAN_MOTION":14.67840458,"ECCENTRICITY":0.0170049,"INCLINATION":89.0158,"RA_OF_ASC_NODE":282.3552,"ARG_OF_PERICENTER":150.1699,"MEAN_ANOMALY":210.9347,"EPHEMERIS_TYPE":0,"CLASSIFICATION_TYPE":"U","NORAD_CAT_ID":61340,"ELEMENT_SET_NO":999,"REV_AT_EPOCH":8091,"BSTAR":0.00043795,"MEAN_MOTION_DOT":3.137e-5,"MEAN_MOTION_DDOT":0}]
